COMMENT,ORIGINATOR,NORAD_CAT_ID,OBJECT_NAME,OBJECT_TYPE,CLASSIFICATION_TYPE,INTLDES,EPOCH,EPOCH_MICROSECONDS,MEAN_MOTION,ECCENTRICITY,INCLINATION,RA_OF_ASC_NODE,ARG_OF_PERICENTER,MEAN_ANOMALY,EPHEMERIS_TYPE,ELEMENT_SET_NO,REV_AT_EPOCH,BSTAR,MEAN_MOTION_DOT,MEAN_MOTION_DDOT,FILE,TLE_LINE0,TLE_LINE1,TLE_LINE2,OBJECT_ID,OBJECT_NUMBER,SEMIMAJOR_AXIS,PERIOD,APOGEE,PERIGEE,DECAYED
"GENERATED VIA SPACETRACK.ORG API","18 SPCS","48894","SPACEBEE-107","PAYLOAD","U","21059R","2022-01-22 06:31:26","252832","15.13248303","0.0008044","97.5374","153.2541","246.9981","113.0402","0","999","3181","0.00024209","0.0000424","0","3280062","0 SPACEBEE-107","1 48894U 21059R   22022.27183163  .00004240  00000-0  24209-3 0  9999","2 48894  97.5374 153.2541 0008044 246.9981 113.0402 15.13248303 31810","2021-059R","48894","6904.439","95.160","531.858","520.750","1"
"GENERATED VIA SPACETRACK.ORG API","18 SPCS","48894","SPACEBEE-107","PAYLOAD","U","21059R","2022-01-22 20:48:24","917184","15.13252285","0.0008112","97.5372","153.8426","244.8259","115.2131","0","999","3190","0.00022277","0.00003897","0","3280371","0 SPACEBEE-107","1 48894U 21059R   22022.86695506  .00003897  00000-0  22277-3 0  9993","2 48894  97.5372 153.8426 0008112 244.8259 115.2131 15.13252285 31904","2021-059R","48894","6904.427","95.159","531.892","520.691","1"
"GENERATED VIA SPACETRACK.ORG API","18 SPCS","48894","SPACEBEE-107","PAYLOAD","U","21059R","2022-01-23 07:54:57","84768","15.13257185","0.0008146","97.5371","154.3002","243.1265","116.9133","0","999","3197","0.00025138","0.00004407","0","3280762","0 SPACEBEE-107","1 48894U 21059R   22023.32982737  .00004407  00000-0  25138-3 0  9997","2 48894  97.5371 154.3002 0008146 243.1265 116.9133 15.13257185 31976","2021-059R","48894","6904.412","95.159","531.901","520.652","1"
"GENERATED VIA SPACETRACK.ORG API","18 SPCS","48894","SPACEBEE-107","PAYLOAD","U","21059R","2022-01-23 14:15:49","734432","15.13258514","0.0008161","97.537","154.5618","242.137","117.9034","0","999","3201","0.00023703","0.00004152","0","3280923","0 SPACEBEE-107","1 48894U 21059R   22023.59432563  .00004152  00000-0  23703-3 0  9996","2 48894  97.5370 154.5618 0008161 242.1370 117.9034 15.13258514 32017","2021-059R","48894","6904.408","95.159","531.907","520.638","1"
"GENERATED VIA SPACETRACK.ORG API","18 SPCS","48894","SPACEBEE-107","PAYLOAD","U","21059R","2022-01-23 20:36:42","324480","15.13260272","0.0008175","97.537","154.8233","241.0162","119.025","0","999","3205","0.00022302","0.00003902","0","3281238","0 SPACEBEE-107","1 48894U 21059R   22023.85882320  .00003902  00000-0  22302-3 0  9991","2 48894  97.5370 154.8233 0008175 241.0162 119.0250 15.13260272 32056","2021-059R","48894","6904.402","95.159","531.912","520.623","1"
"GENERATED VIA SPACETRACK.ORG API","18 SPCS","48894","SPACEBEE-107","PAYLOAD","U","21059R","2022-01-24 07:43:14","320992","15.132637","0.0008201","97.537","155.2811","239.2099","120.8325","0","999","3212","0.00022213","0.00003887","0","3281820","0 SPACEBEE-107","1 48894U 21059R   22024.32169353  .00003887  00000-0  22213-3 0  9991","2 48894  97.5370 155.2811 0008201 239.2099 120.8325 15.13263700 32121","2021-059R","48894","6904.392","95.159","531.919","520.595","1"
"GENERATED VIA SPACETRACK.ORG API","18 SPCS","48894","SPACEBEE-107","PAYLOAD","U","21059R","2022-01-24 18:49:46","195680","15.13267797","0.0008227","97.537","155.7388","237.3942","122.6496","0","999","3219","0.0002294","0.00004017","0","3282096","0 SPACEBEE-107","1 48894U 21059R   22024.78456245  .00004017  00000-0  22940-3 0  9993","2 48894  97.5370 155.7388 0008227 237.3942 122.6496 15.13267797 32195","2021-059R","48894","6904.379","95.158","531.925","520.564","1"
"GENERATED VIA SPACETRACK.ORG API","18 SPCS","48894","SPACEBEE-107","PAYLOAD","U","21059R","2022-01-24 22:00:12","419424","15.13268429","0.0008243","97.537","155.8696","236.8335","123.2106","0","999","3221","0.00021744","0.00003804","0","3282614","0 SPACEBEE-107","1 48894U 21059R   22024.91681041  .00003804  00000-0  21744-3 0  9996","2 48894  97.5370 155.8696 0008243 236.8335 123.2106 15.13268429 32217","2021-059R","48894","6904.377","95.158","531.934","520.551","1"
"GENERATED VIA SPACETRACK.ORG API","18 SPCS","48894","SPACEBEE-107","PAYLOAD","U","21059R","2022-01-25 07:31:31","54368","15.1327306","0.0008263","97.5369","156.2619","235.3109","124.7344","0","999","3227","0.00025055","0.00004394","0","3283407","0 SPACEBEE-107","1 48894U 21059R   22025.31355387  .00004394  00000-0  25055-3 0  9996","2 48894  97.5369 156.2619 0008263 235.3109 124.7344 15.13273060 32273","2021-059R","48894","6904.363","95.158","531.933","520.523","1"
"GENERATED VIA SPACETRACK.ORG API","18 SPCS","48894","SPACEBEE-107","PAYLOAD","U","21059R","2022-01-25 21:48:28","805472","15.13280531","0.0008291","97.5369","156.8503","232.9851","127.0622","0","999","3236","0.00029685","0.0000522","0","3283711","0 SPACEBEE-107","1 48894U 21059R   22025.90866673  .00005220  00000-0  29685-3 0  9998","2 48894  97.5369 156.8503 0008291 232.9851 127.0622 15.13280531 32365","2021-059R","48894","6904.341","95.158","531.930","520.481","1"
"GENERATED VIA SPACETRACK.ORG API","18 SPCS","48894","SPACEBEE-107","PAYLOAD","U","21059R","2022-01-26 02:34:08","6304","15.13282738","0.0008302","97.5368","157.0465","232.2244","127.8235","0","999","3239","0.00030513","0.00005368","0","3283822","0 SPACEBEE-107","1 48894U 21059R   22026.10703711  .00005368  00000-0  30513-3 0  9999","2 48894  97.5368 157.0465 0008302 232.2244 127.8235 15.13282738 32398","2021-059R","48894","6904.334","95.157","531.931","520.467","1"
"GENERATED VIA SPACETRACK.ORG API","18 SPCS","48894","SPACEBEE-107","PAYLOAD","U","21059R","2022-01-26 07:19:47","174304","15.13284483","0.0008306","97.5368","157.2426","231.5044","128.5443","0","999","3242","0.0002934","0.00005159","0","3284266","0 SPACEBEE-107","1 48894U 21059R   22026.30540711  .00005159  00000-0  29340-3 0  9994","2 48894  97.5368 157.2426 0008306 231.5044 128.5443 15.13284483 32423","2021-059R","48894","6904.329","95.157","531.928","520.459","1"
"GENERATED VIA SPACETRACK.ORG API","18 SPCS","48894","SPACEBEE-107","PAYLOAD","U","21059R","2022-01-26 21:36:44","565984","15.1329012","0.000834","97.5369","157.8311","229.2341","130.8167","0","999","3251","0.00027734","0.00004874","0","3284696","0 SPACEBEE-107","1 48894U 21059R   22026.90051581  .00004874  00000-0  27734-3 0  9990","2 48894  97.5369 157.8311 0008340 229.2341 130.8167 15.13290120 32519","2021-059R","48894","6904.311","95.157","531.935","520.418","1"
"GENERATED VIA SPACETRACK.ORG API","18 SPCS","48894","SPACEBEE-107","PAYLOAD","U","21059R","2022-01-27 03:57:36","661824","15.13293021","0.0008345","97.537","158.0927","228.2047","131.8472","0","999","3255","0.00027789","0.00004884","0","3284763","0 SPACEBEE-107","1 48894U 21059R   22027.16500766  .00004884  00000-0  27789-3 0  9994","2 48894  97.5370 158.0927 0008345 228.2047 131.8472 15.13293021 32551","2021-059R","48894","6904.303","95.157","531.929","520.406","1"
"GENERATED VIA SPACETRACK.ORG API","18 SPCS","48894","SPACEBEE-107","PAYLOAD","U","21059R","2022-01-27 08:43:15","694176","15.13295465","0.0008347","97.537","158.2889","227.3896","132.6632","0","999","3258","0.00027802","0.00004887","0","3284946","0 SPACEBEE-107","1 48894U 21059R   22027.36337609  .00004887  00000-0  27802-3 0  9999","2 48894  97.5370 158.2889 0008347 227.3896 132.6632 15.13295465 32588","2021-059R","48894","6904.295","95.157","531.923","520.397","1"
"GENERATED VIA SPACETRACK.ORG API","18 SPCS","48894","SPACEBEE-107","PAYLOAD","U","21059R","2022-01-27 21:24:59","702688","15.13301012","0.0008369","97.5371","158.812","225.2587","134.7963","0","999","3266","0.00026979","0.00004741","0","3285556","0 SPACEBEE-107","1 48894U 21059R   22027.89235767  .00004741  00000-0  26979-3 0  9992","2 48894  97.5371 158.8120 0008369 225.2587 134.7963 15.13301012 32666","2021-059R","48894","6904.278","95.156","531.922","520.365","1"
"GENERATED VIA SPACETRACK.ORG API","18 SPCS","48894","SPACEBEE-107","PAYLOAD","U","21059R","2022-01-28 08:31:30","571680","15.13305613","0.0008384","97.5372","159.2698","223.3954","136.6618","0","999","3273","0.00025889","0.00004547","0","3285747","0 SPACEBEE-107","1 48894U 21059R   22028.35521495  .00004547  00000-0  25889-3 0  9993","2 48894  97.5372 159.2698 0008384 223.3954 136.6618 15.13305613 32733","2021-059R","48894","6904.264","95.156","531.918","520.341","1"
"GENERATED VIA SPACETRACK.ORG API","18 SPCS","48894","SPACEBEE-107","PAYLOAD","U","21059R","2022-01-28 08:31:30","571680","15.13305613","0.0008384","97.5372","159.2698","223.3954","136.6618","0","999","3273","0.00025889","0.00004547","0","3285972","0 SPACEBEE-107","1 48894U 21059R   22028.35521495  .00004547  00000-0  25889-3 0  9993","2 48894  97.5372 159.2698 0008384 223.3954 136.6618 15.13305613 32733","2021-059R","48894","6904.264","95.156","531.918","520.341","1"
"GENERATED VIA SPACETRACK.ORG API","18 SPCS","48894","SPACEBEE-107","PAYLOAD","U","21059R","2022-01-28 21:13:14","271744","15.13310195","0.0008388","97.5373","159.7931","221.3707","138.689","0","999","3281","0.00023341","0.00004093","0","3286235","0 SPACEBEE-107","1 48894U 21059R   22028.88419296  .00004093  00000-0  23341-3 0  9993","2 48894  97.5373 159.7931 0008388 221.3707 138.6890 15.13310195 32811","2021-059R","48894","6904.250","95.156","531.907","520.324","1"
"GENERATED VIA SPACETRACK.ORG API","18 SPCS","48894","SPACEBEE-107","PAYLOAD","U","21059R","2022-01-29 08:19:44","841792","15.13318046","0.000839","97.5373","160.2509","219.4948","140.5672","0","999","3288","0.00030221","0.00005321","0","3286885","0 SPACEBEE-107","1 48894U 21059R   22029.34704678  .00005321  00000-0  30221-3 0  9996","2 48894  97.5373 160.2509 0008390 219.4948 140.5672 15.13318046 32887","2021-059R","48894","6904.227","95.155","531.884","520.299","1"
